{"type": "FeatureCollection", "features": [{"type": "Feature", "properties": {"name": "Bom Jesus dos Perdoes track"}, "geometry": {"type": "LineString", "coordinates": [[-46.4785144944, -23.1682831887, 776.9], [-46.4785166737, -23.1682782434, 776.9], [-46.4785222895, -23.1683140341, 776.4], [-46.4785249718, -23.1683072448, 776.4], [-46.4785185177, -23.1683183927, 776.4], [-46.4785093814, -23.1683082506, 776.4], [-46.4785342757, -23.1683004554, 776.9], [-46.4785399754, -23.1683256011, 776.9], [-46.4785460941, -23.168313615, 776.9], [-46.4785450045, -23.1682929955, 776.9], [-46.4785348624, -23.1683235895, 776.4], [-46.4785408136, -23.1683132797, 775.9], [-46.4785305876, -23.1683194824, 776.9], [-46.4785340242, -23.1683281995, 776.4], [-46.4785388019, -23.1683177222, 776.4], [-46.4785228763, -23.1683141179, 776.4], [-46.4785177633, -23.1683253497, 776.4], [-46.4785186015, -23.1683261041, 776.9], [-46.4785390534, -23.1683209911, 776.9], [-46.4785332698, -23.1683407724, 776.4], [-46.4785329346, -23.1683245953, 775.9], [-46.4785259776, -23.1682971865, 776.4], [-46.4785274025, -23.1682981085, 776.4], [-46.4785382152, -23.1683064066, 775.9], [-46.4785453398, -23.1682973541, 776.4], [-46.4785328507, -23.1682888046, 776.4], [-46.4785361197, -23.1682921574, 776.4], [-46.4785408974, -23.1682794169, 776.4], [-46.4785330184, -23.1683480646, 775.9], [-46.4785089623, -23.1683657505, 775.9], [-46.4784577489, -23.1683735456, 776.4], [-46.4784462657, -23.168370612, 776.9], [-46.4784492832, -23.1683850288, 776.9], [-46.4785222895, -23.1683477294, 776.4], [-46.4786167536, -23.1684118509, 775.4], [-46.4786560647, -23.1684134435, 775.0], [-46.4786816295, -23.1684262678, 775.0], [-46.4787469245, -23.1685759686, 774.5], [-46.4787498582, -23.1685835123, 774.0], [-46.478850944, -23.1687780563, 773.5], [-46.4790022373, -23.1690286752, 771.6], [-46.4791304804, -23.1692889333, 771.1], [-46.4792737272, -23.1695496105, 771.1], [-46.4793961868, -23.1697845552, 770.1], [-46.4794497471, -23.1699073501, 770.1], [-46.4794882201, -23.169992175, 770.1], [-46.4795565326, -23.1702130381, 769.7], [-46.4796233363, -23.1704860367, 769.7], [-46.4796816744, -23.1707302015, 770.6], [-46.4796958398, -23.1708089914, 770.1], [-46.4796984382, -23.1708286889, 770.6], [-46.4797385037, -23.1709260028, 770.6], [-46.4797840174, -23.1711204629, 771.6], [-46.479808744, -23.1713043619, 772.6], [-46.4798846841, -23.171501169, 774.0], [-46.4799940679, -23.1717507821, 774.0], [-46.4800194651, -23.1719909236, 773.5], [-46.4800013602, -23.1721804384, 773.0], [-46.479998678, -23.1724010501, 773.0], [-46.4801234007, -23.1725717057, 772.6], [-46.4803348761, -23.1727625616, 772.1], [-46.4805107284, -23.1729478016, 772.1], [-46.4807005785, -23.1731433515, 772.6], [-46.4808959607, -23.1732964888, 772.6], [-46.4810957015, -23.173418697, 773.0], [-46.4813105296, -23.1735204533, 774.5], [-46.4815077558, -23.1735825632, 776.9], [-46.4816898108, -23.1736595929, 776.4], [-46.4819135237, -23.1737816334, 775.4], [-46.4820936508, -23.1739266403, 775.0], [-46.482274197, -23.1740915962, 774.5], [-46.4823975787, -23.1742161512, 773.5], [-46.4824065473, -23.1742250361, 773.5], [-46.4825865068, -23.1742795184, 772.6], [-46.4827507921, -23.1742550433, 772.6], [-46.4829518739, -23.1741884071, 773.0], [-46.4832149819, -23.1740791071, 773.0], [-46.4834276307, -23.1739873253, 773.5], [-46.4836940076, -23.1738916878, 774.0], [-46.4839015435, -23.1738548074, 774.5], [-46.4839577861, -23.1738552265, 774.0], [-46.4842008613, -23.1738554779, 775.4], [-46.4843800664, -23.1738574058, 778.3], [-46.4844058827, -23.1738510355, 778.3], [-46.4846577588, -23.1738416478, 781.2], [-46.4848771133, -23.1738187652, 781.7], [-46.4851174224, -23.1738030072, 782.2], [-46.4852150716, -23.1737829745, 782.2], [-46.4854597393, -23.1737725809, 783.1], [-46.4856484998, -23.1737364549, 784.1], [-46.4857660141, -23.1736839842, 785.0], [-46.4858678542, -23.1736457627, 785.0], [-46.4859035611, -23.173628496, 786.0], [-46.4859927446, -23.1735837366, 787.0], [-46.4861043915, -23.1735165976, 789.4], [-46.4862147812, -23.1734232232, 791.3], [-46.4862954989, -23.1733648852, 792.7], [-46.4863814972, -23.1733083073, 794.7], [-46.4864488877, -23.1732932199, 795.1], [-46.4865503088, -23.1733243167, 796.6], [-46.486597918, -23.1734198704, 797.5], [-46.4866056293, -23.1734361313, 798.0], [-46.4865922183, -23.1734842435, 799.5], [-46.4865756221, -23.1735900231, 801.9], [-46.4865686651, -23.1736188568, 802.8], [-46.4865637198, -23.1736270711, 802.4], [-46.4866047073, -23.1736138277, 801.9], [-46.4865498897, -23.173573846, 801.4], [-46.4864610415, -23.1735676434, 802.4], [-46.4864770509, -23.1735536456, 801.9], [-46.4865471236, -23.1735633686, 801.9], [-46.4865915477, -23.1735837366, 802.4], [-46.486595571, -23.173636375, 802.4], [-46.4865745325, -23.1736418232, 802.4], [-46.4865681622, -23.1736200303, 802.4], [-46.4865811542, -23.1736381352, 802.4], [-46.4865915477, -23.173650708, 803.3], [-46.4866640512, -23.1737828068, 806.7], [-46.4866699185, -23.1738660391, 807.6], [-46.4867167734, -23.173948098, 809.1], [-46.4867866784, -23.1741068512, 811.0], [-46.4868034422, -23.1742680352, 813.4], [-46.4868767839, -23.1744194962, 816.8], [-46.486945767, -23.1745402794, 819.2], [-46.4870108943, -23.1746310554, 820.6], [-46.4870572463, -23.174762316, 824.0], [-46.4871207811, -23.1748649944, 827.4], [-46.4871678036, -23.1749564409, 830.2], [-46.487188926, -23.1750366557, 833.1], [-46.4872754272, -23.1750468817, 836.0], [-46.4873952884, -23.1750299502, 839.4], [-46.487440886, -23.1750343088, 840.8], [-46.4875685424, -23.1750542577, 844.7], [-46.487689577, -23.1750962511, 848.0], [-46.4878225978, -23.1751451176, 848.5], [-46.4877904113, -23.1751822494, 848.0], [-46.4877543692, -23.1752129272, 848.0], [-46.4877648465, -23.1752012763, 848.0], [-46.4877610747, -23.1751991808, 848.5], [-46.4877608232, -23.1752167828, 848.0], [-46.4877725579, -23.1752159446, 848.5], [-46.4877810236, -23.1752357259, 848.5], [-46.487770211, -23.1752566807, 848.5], [-46.4877761621, -23.175209742, 848.5], [-46.4878293034, -23.1751614623, 849.0], [-46.4878584724, -23.1751526613, 848.5], [-46.488063829, -23.1750980951, 851.9], [-46.4881792478, -23.175074039, 855.2], [-46.4883598778, -23.1750539225, 857.6], [-46.488548303, -23.175036991, 861.0], [-46.488696998, -23.1750353985, 863.9], [-46.4888225589, -23.1750271004, 867.2], [-46.4890471101, -23.1750824209, 869.6], [-46.4891562425, -23.175075883, 872.5], [-46.48927317, -23.1750968378, 875.4], [-46.4894089568, -23.1752174534, 879.3], [-46.4895030856, -23.1753200479, 882.1], [-46.4896449912, -23.1754129194, 885.5], [-46.4897216856, -23.1755132508, 888.9], [-46.4898021519, -23.1755647995, 892.2], [-46.4898662735, -23.1756181084, 895.6], [-46.4899699576, -23.1757406518, 898.5], [-46.4900500886, -23.1758725829, 901.9], [-46.4900556207, -23.1759781949, 901.9], [-46.4900379349, -23.1759596709, 902.3], [-46.4900112804, -23.175971657, 901.9], [-46.4900423773, -23.1759645324, 902.3], [-46.4900313132, -23.1759479363, 902.8], [-46.4899951033, -23.1759477686, 902.8], [-46.4899798483, -23.1759985629, 903.3], [-46.4900049102, -23.1759918574, 903.3], [-46.4899614081, -23.1759427395, 903.3], [-46.489976244, -23.1759773567, 903.8], [-46.4900065865, -23.1759757642, 904.3], [-46.4900394436, -23.1759917736, 904.3], [-46.4900464006, -23.1759921927, 904.3], [-46.4901928324, -23.1760208588, 908.1], [-46.4903211594, -23.1760520395, 911.0], [-46.4904274419, -23.1761193462, 914.4], [-46.4904826786, -23.176222695, 917.2], [-46.4905043039, -23.1763164885, 920.1], [-46.4905552659, -23.1764182448, 923.5], [-46.4905588701, -23.1764229387, 923.5], [-46.4906159509, -23.1764917541, 926.9], [-46.490718713, -23.1765675265, 930.2], [-46.4908163622, -23.1766111124, 933.6], [-46.4909233153, -23.1766775809, 936.5], [-46.4910423383, -23.1767670996, 939.8], [-46.4911396522, -23.1768407766, 943.2], [-46.4912174363, -23.1769316364, 946.1], [-46.4913067874, -23.177018892, 949.4], [-46.4913571626, -23.1770955864, 952.3], [-46.491438048, -23.1772034615, 955.2], [-46.4914865792, -23.1773049664, 959.0], [-46.4915740024, -23.177366741, 961.9], [-46.4916943666, -23.1774301082, 965.3], [-46.491772905, -23.1775388215, 968.2], [-46.4918544609, -23.177652061, 971.5], [-46.4919476677, -23.1777792145, 974.9], [-46.4920361806, -23.1779288314, 977.8], [-46.4921519347, -23.1780621875, 979.7], [-46.4922990371, -23.1781297456, 980.2], [-46.4922520146, -23.1781522091, 980.2], [-46.4922776632, -23.1781592499, 980.2], [-46.4922436327, -23.1781418156, 980.2], [-46.4922676049, -23.1781463418, 980.2], [-46.4922387712, -23.1781923585, 980.2], [-46.4922197443, -23.1781911012, 980.2], [-46.4922132064, -23.1782080326, 980.2], [-46.4922070038, -23.1781942025, 980.7], [-46.4922155533, -23.1781964656, 980.2], [-46.4922126196, -23.1781700626, 980.2], [-46.4922349155, -23.1781929452, 980.7], [-46.4922173973, -23.1781771872, 981.2], [-46.4922230132, -23.1781474315, 981.6], [-46.4922230132, -23.1781577412, 981.6], [-46.4922402799, -23.1781641953, 981.6], [-46.4922204148, -23.1782103796, 981.2], [-46.4922271203, -23.1781803723, 981.6], [-46.4922172297, -23.1781427376, 982.1], [-46.4923512563, -23.1781418156, 981.2], [-46.4923751447, -23.1781465095, 981.2], [-46.4925742149, -23.1781766843, 980.2], [-46.4927518275, -23.1783151533, 983.6], [-46.4929264225, -23.1783202663, 983.1], [-46.4931481238, -23.1784534547, 984.5], [-46.4932539873, -23.1785823684, 987.9], [-46.4933675621, -23.1788138766, 990.8], [-46.4934015926, -23.1789712887, 993.7], [-46.4934816398, -23.1790586282, 997.0], [-46.4936311729, -23.1790500786, 997.5], [-46.4938175026, -23.1790500786, 997.5], [-46.493880786, -23.1792289484, 998.5], [-46.4938791096, -23.1793380808, 1001.8], [-46.4938783552, -23.1794340536, 1003.8], [-46.4938273095, -23.1795711815, 1007.1], [-46.4938481804, -23.1796607841, 1010.0], [-46.4938601665, -23.1797849201, 1013.4], [-46.4938950352, -23.1799176056, 1017.2], [-46.4939703885, -23.1800807174, 1020.1], [-46.4940260444, -23.1802239642, 1023.5], [-46.4940898307, -23.1803118065, 1026.3], [-46.4941845462, -23.1804163288, 1029.2], [-46.4942899067, -23.1804840546, 1030.7], [-46.4944618195, -23.1805877388, 1032.1], [-46.494639935, -23.1806383654, 1030.2], [-46.494863648, -23.1808133796, 1028.8], [-46.4949030429, -23.180857636, 1029.2], [-46.4950008597, -23.180995686, 1029.7], [-46.4949723613, -23.1810893957, 1029.7], [-46.4949530829, -23.1810817681, 1029.7], [-46.4949317928, -23.1810890604, 1029.7], [-46.4949272666, -23.1810698658, 1030.2], [-46.4949093293, -23.1810809299, 1029.7], [-46.4949506521, -23.1811023876, 1030.2], [-46.4949256741, -23.1810940895, 1030.2], [-46.4949213993, -23.1810708717, 1030.2], [-46.4949145261, -23.1811581273, 1030.7], [-46.4949672483, -23.1810927484, 1030.7], [-46.4950232394, -23.1810608134, 1030.7], [-46.4950341359, -23.181060059, 1031.2], [-46.4950281009, -23.1810871325, 1031.2], [-46.4950108342, -23.1811442133, 1033.1], [-46.4951148536, -23.1812361628, 1036.0], [-46.4951386582, -23.1813234184, 1039.3], [-46.4952048752, -23.1814678386, 1042.7], [-46.4952097367, -23.1814780645, 1042.7], [-46.495216107, -23.1814873684, 1042.7], [-46.4952345472, -23.181510251, 1043.2], [-46.4953273349, -23.1816881988, 1046.0], [-46.4953789674, -23.1818684936, 1048.9], [-46.495455578, -23.1820210442, 1051.8], [-46.495556999, -23.1821446773, 1054.7], [-46.4956571627, -23.1822135765, 1056.6], [-46.4974632114, -23.1870776787, 1135.5], [-46.4974773768, -23.1870718114, 1135.0], [-46.4974809811, -23.1870609988, 1135.9], [-46.4975316077, -23.1870473363, 1136.4], [-46.4975549933, -23.1870711409, 1137.4], [-46.4975547418, -23.1871316582, 1137.9], [-46.4975438453, -23.1871578936, 1137.9], [-46.497574104, -23.1871738192, 1138.8], [-46.4976030216, -23.187282281, 1139.8], [-46.4976283349, -23.187314719, 1140.7], [-46.4976766985, -23.1873905752, 1141.2], [-46.4976623654, -23.1873894855, 1141.2], [-46.4976427518, -23.1873704586, 1142.2], [-46.4976140857, -23.1873445585, 1141.7], [-46.4975892752, -23.1873262022, 1140.3], [-46.4975958131, -23.1873134617, 1141.7], [-46.4975813124, -23.1873053312, 1141.2], [-46.4976000879, -23.1873510964, 1142.2], [-46.4976100624, -23.1873961072, 1142.2], [-46.4975985792, -23.1873768289, 1142.7], [-46.4976015128, -23.187336009, 1143.1], [-46.4975969028, -23.1873441394, 1143.6], [-46.4975938015, -23.1873216759, 1144.1], [-46.497598663, -23.1873247772, 1144.1], [-46.4976295084, -23.187301727, 1145.1], [-46.4976689033, -23.1873584725, 1146.0], [-46.4976576716, -23.1873403676, 1146.5], [-46.4976600185, -23.1873476598, 1146.5], [-46.4977337793, -23.1873776671, 1147.0], [-46.4978477731, -23.1874148827, 1149.4], [-46.4978498686, -23.1874564569, 1149.9], [-46.4978304226, -23.1874209177, 1149.9], [-46.4978416543, -23.1873788405, 1148.9], [-46.4978097193, -23.1873261184, 1148.4], [-46.4977777842, -23.1872417964, 1147.5], [-46.497770492, -23.1872203387, 1148.0], [-46.4977518003, -23.1871680357, 1147.5], [-46.497728331, -23.1871228572, 1146.5], [-46.4976663888, -23.1870283931, 1145.5], [-46.497636633, -23.1870331708, 1145.1], [-46.4975745231, -23.1870516948, 1144.1], [-46.4975520596, -23.1870291475, 1144.1], [-46.4975395706, -23.1870179996, 1144.1], [-46.4975142572, -23.1869257987, 1143.1], [-46.4974749461, -23.1868971325, 1142.7], [-46.4974700008, -23.1868928578, 1142.7], [-46.4974075556, -23.1868398003, 1141.7], [-46.4973910432, -23.1868159119, 1141.2], [-46.4973969944, -23.1868184265, 1141.2], [-46.4973735251, -23.1868020818, 1141.2], [-46.49736288, -23.1868079491, 1140.7], [-46.4973632153, -23.1868183427, 1141.2], [-46.4973608684, -23.1868161634, 1140.7], [-46.497367071, -23.1867864076, 1140.7], [-46.4973658137, -23.1867859885, 1141.2], [-46.4973623771, -23.1867757626, 1140.7], [-46.4973700047, -23.1867727451, 1140.7], [-46.4973595273, -23.1867753435, 1140.7], [-46.4973829128, -23.1867478509, 1141.2], [-46.4973827451, -23.1867602561, 1140.7], [-46.4973887801, -23.1867652852, 1141.2], [-46.4973857626, -23.1867632736, 1141.7], [-46.4973617904, -23.1867803726, 1141.2], [-46.4973673224, -23.1867821328, 1141.7], [-46.4973759558, -23.1868004892, 1141.2], [-46.4973688312, -23.1868216116, 1141.7], [-46.4973602816, -23.1868167501, 1141.7], [-46.497375872, -23.1868153252, 1141.7], [-46.4973654784, -23.1868022494, 1141.7], [-46.4973807335, -23.1867791992, 1141.7], [-46.4973915461, -23.1868143193, 1142.2], [-46.4973858465, -23.1868301611, 1142.7], [-46.4973809011, -23.1868235394, 1142.7], [-46.497373106, -23.1868158281, 1142.7], [-46.4973752014, -23.1868274789, 1143.1], [-46.4973785542, -23.186829742, 1143.6], [-46.4973790571, -23.1868800335, 1143.6], [-46.4974404126, -23.1868809555, 1145.1], [-46.4974762872, -23.1869166624, 1146.0], [-46.4975063782, -23.1869155727, 1145.5], [-46.4975410793, -23.1869553868, 1146.5], [-46.4975971542, -23.1870439835, 1148.0], [-46.4976323582, -23.187104417, 1149.4], [-46.4976803865, -23.187172059, 1150.3], [-46.4977979008, -23.1872366834, 1152.3], [-46.4978462644, -23.1873236038, 1153.2], [-46.4979135711, -23.1874695327, 1155.2], [-46.4979751781, -23.1876528449, 1156.1], [-46.4980201889, -23.1878007855, 1157.1], [-46.4980657026, -23.1879310403, 1157.1], [-46.4980853163, -23.1879511569, 1157.6], [-46.4981693868, -23.1880090758, 1158.5], [-46.4982108772, -23.1880332157, 1159.0], [-46.4982178342, -23.1880448665, 1159.0], [-46.498237364, -23.1881842576, 1159.5], [-46.4982153196, -23.1883613672, 1161.9], [-46.4982402977, -23.1885658856, 1164.3], [-46.4982420579, -23.1885735132, 1164.3], [-46.4983060118, -23.1887864135, 1166.7], [-46.4982844703, -23.1890185922, 1167.2], [-46.498245243, -23.189215567, 1167.7], [-46.4981111325, -23.1893877313, 1167.2], [-46.4979764353, -23.189466605, 1165.7], [-46.4979150798, -23.1894940976, 1165.7], [-46.4978957176, -23.1894899905, 1165.3], [-46.497940477, -23.1894697063, 1166.2], [-46.497946931, -23.1894641742, 1166.2], [-46.4979077876, -23.1894928403, 1165.7], [-46.497905273, -23.189480016, 1165.3], [-46.4979165047, -23.1894977856, 1165.7], [-46.497910386, -23.1895084307, 1165.7], [-46.4978832286, -23.1895255297, 1164.8], [-46.4978328533, -23.1895630807, 1164.3], [-46.4977267385, -23.1896939222, 1160.9], [-46.4977192786, -23.1897003762, 1160.5], [-46.497601429, -23.1897712033, 1157.1], [-46.4974405803, -23.1898062397, 1153.7], [-46.4972690027, -23.1898679305, 1150.8], [-46.4972405042, -23.1898910645, 1150.3], [-46.4971116744, -23.1899560243, 1148.4], [-46.4970114268, -23.1900177151, 1146.0], [-46.4968896378, -23.1900655758, 1143.1], [-46.4967559464, -23.1901126821, 1139.8], [-46.4966495801, -23.1901811622, 1136.9], [-46.4965352509, -23.190254923, 1133.5], [-46.4965293836, -23.1902599521, 1133.5], [-46.4965242706, -23.1902679987, 1134.0], [-46.496449504, -23.1903033704, 1131.1], [-46.4963213447, -23.1903611217, 1127.3], [-46.4963042457, -23.1903684977, 1126.8], [-46.4961879048, -23.1904132571, 1123.4], [-46.4960685465, -23.1904476229, 1120.1], [-46.495971065, -23.1904814858, 1117.7], [-46.495890012, -23.1905124988, 1115.8], [-46.4957751799, -23.1905427575, 1112.9], [-46.4956821408, -23.1905948929, 1110.0], [-46.4956150018, -23.1906438433, 1108.1], [-46.4955868386, -23.1906598527, 1107.1], [-46.4954938833, -23.1907414086, 1105.2], [-46.4954005089, -23.1908247247, 1103.7], [-46.495383326, -23.1908611022, 1103.2], [-46.4953526482, -23.1908831466, 1102.8], [-46.4953176118, -23.1908648741, 1103.2], [-46.4952561725, -23.1909490284, 1101.8], [-46.495244354, -23.190965876, 1101.8], [-46.4951508958, -23.1910716556, 1101.3], [-46.4950792305, -23.1911308318, 1100.4], [-46.4950741176, -23.1911341008, 1100.4], [-46.4950504806, -23.1911473442, 1099.9], [-46.4950498939, -23.1911285687, 1099.9], [-46.4950793982, -23.1910993159, 1099.9], [-46.4950319566, -23.1911366154, 1100.8], [-46.4950450324, -23.1911082845, 1100.4], [-46.4950543363, -23.1911109667, 1100.8], [-46.4950338006, -23.1911909301, 1100.4], [-46.4949559327, -23.1912924349, 1098.4], [-46.4948291145, -23.191330824, 1095.1], [-46.4948047232, -23.1913327519, 1094.1], [-46.4947637357, -23.1913342606, 1093.2], [-46.4946457185, -23.1913415529, 1091.2], [-46.4945308026, -23.1913733203, 1088.8], [-46.4945160504, -23.1913889106, 1087.9], [-46.4944965206, -23.1914053392, 1087.4], [-46.4944585506, -23.1914854702, 1085.0], [-46.494426867, -23.1915127952, 1084.5], [-46.4943868853, -23.1915529445, 1083.1], [-46.4942699578, -23.191667106, 1080.7], [-46.4941078518, -23.1917759031, 1078.7], [-46.4939236175, -23.1918443833, 1077.8], [-46.4938036725, -23.1918592192, 1077.3], [-46.4935108926, -23.1919722073, 1075.8], [-46.4932900295, -23.1920074113, 1075.4], [-46.4930486307, -23.1920368318, 1074.4], [-46.4928268455, -23.1920132786, 1073.5], [-46.4926716127, -23.1920166314, 1071.5], [-46.4924878813, -23.1920410227, 1067.7], [-46.4924100135, -23.1920184754, 1066.2], [-46.4923582133, -23.1920022145, 1065.8], [-46.4923822694, -23.1919769011, 1066.2], [-46.4923695289, -23.1919628195, 1066.2], [-46.4923721272, -23.1919547729, 1065.8], [-46.4923758991, -23.1919521745, 1065.8], [-46.4923253562, -23.1918981951, 1066.2], [-46.4923690259, -23.1920100935, 1066.7], [-46.492325021, -23.1920506619, 1067.2], [-46.4923216682, -23.1920620613, 1066.7], [-46.4923371747, -23.1920549367, 1066.7], [-46.4923195727, -23.1920469739, 1066.7], [-46.4923312236, -23.1920428667, 1066.7], [-46.4923292957, -23.1920506619, 1067.2], [-46.4923478197, -23.1920650788, 1067.2], [-46.4923417848, -23.1921073236, 1067.2], [-46.4923636615, -23.1921142805, 1067.2], [-46.4923780784, -23.192132134, 1067.2], [-46.4924309682, -23.1922506541, 1067.2], [-46.4924777392, -23.1923404243, 1067.2], [-46.4925468061, -23.1924783904, 1068.2], [-46.4927097503, -23.1926117465, 1068.6], [-46.492827516, -23.1927437615, 1067.2], [-46.4929172862, -23.1928732619, 1066.2], [-46.4930160251, -23.1929128245, 1064.8], [-46.4930371474, -23.1929136626, 1064.3], [-46.4931060467, -23.1929616071, 1063.8], [-46.4931173623, -23.1929773651, 1063.4], [-46.4931582659, -23.1930061989, 1063.4], [-46.4932988305, -23.1930921134, 1062.4], [-46.4934181888, -23.1931857392, 1060.5], [-46.4934803825, -23.1932785269, 1059.5], [-46.493510725, -23.1933126412, 1058.1], [-46.4936580788, -23.1933864858, 1056.2], [-46.4937939495, -23.1934607495, 1053.7], [-46.4938843902, -23.1935594045, 1052.3], [-46.4939294849, -23.1936459895, 1049.4], [-46.4940055087, -23.1937787589, 1047.5], [-46.4940624218, -23.1938622426, 1046.0], [-46.4941348415, -23.1939711235, 1044.1], [-46.4942334965, -23.1940796692, 1042.7], [-46.4942836203, -23.1941722892, 1041.7], [-46.4943149686, -23.1942378357, 1040.8], [-46.4944223408, -23.1942478102, 1038.8], [-46.4947289508, -23.1941025518, 1039.3], [-46.4947709441, -23.194163572, 1037.9], [-46.49483582, -23.1942607183, 1035.5], [-46.4949382469, -23.1944207288, 1033.1], [-46.4950115886, -23.1945128459, 1029.7], [-46.4950760454, -23.1945857685, 1027.3], [-46.4950934798, -23.1945907976, 1027.3], [-46.4951268397, -23.1946199667, 1026.3], [-46.4952658117, -23.1946996786, 1023.0], [-46.495442586, -23.194747204, 1021.5], [-46.495496314, -23.1948246527, 1021.1], [-46.4955386426, -23.1947913766, 1021.5], [-46.4956403151, -23.1947353855, 1022.0], [-46.4956267364, -23.1948262453, 1022.0], [-46.4956777822, -23.1948162708, 1022.5], [-46.4956603479, -23.1948228087, 1021.5], [-46.4957212005, -23.1949518062, 1022.0], [-46.495871488, -23.1950402353, 1023.0], [-46.4959672093, -23.1951393094, 1023.5], [-46.4960540459, -23.1952807959, 1022.5], [-46.4960774314, -23.1952921115, 1023.0], [-46.4960475918, -23.1953016669, 1023.0], [-46.4960467536, -23.1953142397, 1023.0], [-46.4960948657, -23.1953845639, 1021.1], [-46.4961779304, -23.1954957079, 1019.1], [-46.4961995557, -23.1956016552, 1017.2], [-46.4962264616, -23.1956822891, 1015.8], [-46.4962615818, -23.1957472488, 1013.9], [-46.4962469973, -23.1957677845, 1010.5], [-46.4962804411, -23.1958033238, 1007.6], [-46.4962963667, -23.1958127115, 1006.6], [-46.4963878971, -23.1959289685, 1007.6], [-46.4964795951, -23.1959045772, 1006.6], [-46.4965283778, -23.1958868913, 1006.2], [-46.4964920841, -23.1959386077, 1006.6], [-46.4965215046, -23.1959002186, 1007.1], [-46.4965352509, -23.1959584728, 1007.6], [-46.4965600614, -23.1959413737, 1008.6], [-46.4965484943, -23.1958530284, 1009.0], [-46.4965599775, -23.1958796829, 1009.5], [-46.4966211654, -23.1958529446, 1010.5], [-46.4966293797, -23.1958454847, 1011.0], [-46.4965764061, -23.1958352588, 1011.0], [-46.496541705, -23.1958853826, 1011.4], [-46.4965132903, -23.195886137, 1011.9], [-46.4965592232, -23.1958622485, 1011.9], [-46.4965089317, -23.1958914176, 1012.9], [-46.4965361729, -23.1958352588, 1013.4], [-46.4965238515, -23.1959056668, 1013.4], [-46.4964956883, -23.1958598178, 1013.9], [-46.4964455646, -23.1959117856, 1014.3], [-46.4965214208, -23.195926873, 1013.9], [-46.4965581335, -23.1958797667, 1014.8], [-46.496575987, -23.1958589796, 1014.8], [-46.4965124521, -23.1959086005, 1015.3], [-46.4964550361, -23.1959381886, 1015.3], [-46.4965024777, -23.1959288847, 1015.8], [-46.4964992926, -23.1959655136, 1015.8], [-46.496532904, -23.195996359, 1015.8], [-46.4965711255, -23.1959251966, 1016.2], [-46.4965831954, -23.1960178167, 1016.7], [-46.4965873025, -23.1960552, 1016.7], [-46.4965005498, -23.1960317306, 1016.7], [-46.4966266137, -23.1958535314, 1016.7], [-46.4964868035, -23.1959361769, 1016.7], [-46.4966391865, -23.1959908269, 1017.2], [-46.4965872187, -23.1959800143, 1017.2], [-46.4965765737, -23.1959289685, 1017.7], [-46.4965598099, -23.1958532799, 1017.2], [-46.496505579, -23.1958997995, 1017.7], [-46.4965421241, -23.1958966143, 1018.6], [-46.4965628274, -23.1958648469, 1018.2], [-46.4965058304, -23.1957702152, 1018.2], [-46.4965561219, -23.1957742386, 1018.6], [-46.4965798426, -23.1957697961, 1019.1], [-46.4965852071, -23.1958746538, 1019.6], [-46.4965005498, -23.1959316507, 1020.1], [-46.4965020586, -23.1959027331, 1019.6], [-46.496555116, -23.1958830357, 1020.1], [-46.4965684433, -23.195885634, 1020.1], [-46.4965739753, -23.1958137173, 1020.1], [-46.4965658449, -23.1957651023, 1020.6], [-46.4966005459, -23.1958235241, 1020.1], [-46.4966428746, -23.1958451495, 1019.6], [-46.4965873025, -23.1959062535, 1020.1], [-46.4965849556, -23.1958608236, 1019.6], [-46.496551428, -23.1958688702, 1019.6], [-46.4964992926, -23.195947744, 1020.1], [-46.4965676889, -23.1958549563, 1020.1], [-46.4965656772, -23.195830062, 1020.1], [-46.4965446386, -23.1958172377, 1020.1], [-46.4966046531, -23.1958627515, 1020.1], [-46.4966052398, -23.1958255358, 1020.1], [-46.4965275396, -23.1958097778, 1020.1], [-46.496474063, -23.1958880648, 1020.1], [-46.496511111, -23.1958696246, 1020.1], [-46.4965269528, -23.1958623324, 1020.1], [-46.4965328202, -23.1959086843, 1020.6], [-46.4965023939, -23.1959504262, 1020.6], [-46.4965189062, -23.1958689541, 1020.1], [-46.4965174813, -23.1958724745, 1020.1], [-46.4965341613, -23.1958710495, 1020.1], [-46.4965340775, -23.1959143002, 1019.6], [-46.4965792559, -23.1959579699, 1019.1], [-46.4965581335, -23.1959346682, 1019.1], [-46.4965103567, -23.1958658528, 1019.6], [-46.4965170622, -23.1959115341, 1019.6], [-46.4965378493, -23.1958788447, 1019.6], [-46.4965990372, -23.1958733965, 1019.1], [-46.4965638332, -23.1958349235, 1018.6], [-46.4965062495, -23.1958811078, 1020.1], [-46.4964934252, -23.1959084328, 1018.2], [-46.4965114463, -23.1958957762, 1019.1], [-46.4964581374, -23.1958844606, 1018.2], [-46.496322602, -23.1958292238, 1019.6], [-46.4962780941, -23.1958340853, 1020.1], [-46.4963002224, -23.195799971, 1022.0], [-46.4963036589, -23.1957428902, 1025.4], [-46.4962908346, -23.1957195885, 1027.3], [-46.4962592348, -23.1956179161, 1028.8], [-46.4962513559, -23.195553124, 1031.6], [-46.4961838815, -23.19544659, 1032.1], [-46.4961217716, -23.1953357812, 1033.5], [-46.496067876, -23.1952584162, 1034.0], [-46.4959788602, -23.1951741781, 1034.0], [-46.4958589152, -23.1950536463, 1033.1], [-46.4957717434, -23.1949751079, 1033.1], [-46.4956906904, -23.1948441826, 1033.1], [-46.4956191927, -23.1947459467, 1033.5], [-46.4954927098, -23.1947136763, 1034.0], [-46.4953761175, -23.1946964934, 1036.0], [-46.4952773787, -23.1946819928, 1037.4], [-46.4952567592, -23.1946913805, 1038.4], [-46.495189704, -23.1946639717, 1039.8], [-46.4950950723, -23.1945864391, 1042.7], [-46.4950027876, -23.1944778096, 1046.0], [-46.4949957468, -23.1944692601, 1046.0], [-46.4949477185, -23.1944043841, 1047.0], [-46.4948758017, -23.1943162903, 1048.9], [-46.4948435314, -23.1943625584, 1048.9], [-46.4948200621, -23.194264574, 1050.9], [-46.4947448764, -23.1941039767, 1052.8], [-46.4946939982, -23.1939909887, 1054.2], [-46.4946457185, -23.1939068343, 1056.2], [-46.4946054015, -23.1937808543, 1059.0], [-46.4945147093, -23.193627717, 1061.9], [-46.4944175631, -23.1935059279, 1064.8], [-46.4943327382, -23.1933855638, 1068.6], [-46.4942417108, -23.1932796165, 1071.5], [-46.4941991307, -23.1932374556, 1072.5], [-46.4940716419, -23.1931202766, 1074.4], [-46.4939709753, -23.1930273212, 1077.8], [-46.4938822947, -23.1929538958, 1079.7], [-46.4937346894, -23.1928865891, 1082.6], [-46.4935699012, -23.1928209588, 1084.0], [-46.4935242198, -23.1928106491, 1084.0], [-46.4934180211, -23.1927710865, 1084.5], [-46.4933943842, -23.192819953, 1083.1], [-46.4933772851, -23.1928283349, 1083.1], [-46.4934264868, -23.1928394828, 1083.1], [-46.4934100583, -23.192806961, 1083.1], [-46.4934091363, -23.1927966513, 1083.5], [-46.4933774527, -23.1927383132, 1084.5], [-46.4932243992, -23.1927294284, 1086.4], [-46.4931011014, -23.1927289255, 1087.4], [-46.4930393267, -23.1927031931, 1088.3], [-46.4928731974, -23.1925950665, 1089.3], [-46.4926958364, -23.1925192103, 1089.3], [-46.49256818, -23.1924414262, 1088.8], [-46.4924404398, -23.1922525819, 1088.8], [-46.4923642483, -23.1920534279, 1088.8], [-46.4923439641, -23.1920085847, 1088.8], [-46.4923285414, -23.1919962633, 1088.8], [-46.4922987856, -23.1919897255, 1088.3], [-46.4922614861, -23.1919792481, 1087.9], [-46.4920962788, -23.1919670105, 1086.9], [-46.4919353463, -23.1919464748, 1085.0], [-46.4917124715, -23.1918924954, 1081.6], [-46.4915970527, -23.1918485742, 1080.2], [-46.4914723299, -23.1917840336, 1078.3], [-46.4912520535, -23.191708345, 1075.8], [-46.4910812303, -23.1916456483, 1074.4], [-46.4909244049, -23.1915942673, 1073.0], [-46.4908654802, -23.1915983744, 1073.5], [-46.4906717744, -23.1915093586, 1073.0], [-46.4905530866, -23.1914353464, 1071.5], [-46.4904880431, -23.1913962029, 1071.0], [-46.4904502407, -23.1913814507, 1070.6], [-46.4904118516, -23.1913627591, 1070.6], [-46.4903743006, -23.1913438998, 1069.6], [-46.4901826903, -23.191348426, 1066.2], [-46.4901686925, -23.1913492642, 1065.8], [-46.4899769146, -23.1913819537, 1062.9], [-46.4899337478, -23.1914050877, 1062.4], [-46.4899106976, -23.1914181635, 1061.4], [-46.4898148086, -23.1914946903, 1059.0], [-46.4897731505, -23.1915206742, 1057.1], [-46.4895954542, -23.1915460713, 1053.7], [-46.4893998206, -23.1915042456, 1051.3], [-46.4892079588, -23.1914340891, 1048.9], [-46.4891872555, -23.1914205104, 1048.0], [-46.4889723435, -23.1913330033, 1045.1], [-46.4888551645, -23.1912213564, 1042.7], [-46.4888382331, -23.191207191, 1042.2], [-46.4888025261, -23.1911655329, 1040.8], [-46.4887852594, -23.1911341008, 1039.3], [-46.488706721, -23.191033015, 1036.0], [-46.488607144, -23.190926481, 1033.1], [-46.4884965029, -23.1908807997, 1031.2], [-46.4884364046, -23.1908881757, 1030.2], [-46.4884105884, -23.1908930372, 1030.2], [-46.4882978518, -23.1909712404, 1029.7], [-46.488137925, -23.1911188457, 1028.8], [-46.4879443869, -23.19107241, 1026.3], [-46.4879039023, -23.1910667941, 1025.9], [-46.4877388626, -23.1910422351, 1023.9], [-46.4875779301, -23.1909771077, 1020.6], [-46.4874902554, -23.1908892654, 1018.2], [-46.4874587394, -23.1907992437, 1014.8], [-46.4874344319, -23.19073705, 1013.9], [-46.4873511158, -23.1905978266, 1010.5], [-46.487335274, -23.1904514786, 1007.1], [-46.4872867428, -23.1902821641, 1004.7], [-46.4872774389, -23.190138666, 1001.8], [-46.4872831386, -23.1900389213, 1000.4], [-46.4872961305, -23.1898714509, 996.1], [-46.4873043448, -23.1898529269, 995.6], [-46.4873121399, -23.1898147892, 993.7], [-46.4873211086, -23.1897669286, 992.2], [-46.4873729926, -23.1896516774, 988.9], [-46.4873775188, -23.1896318961, 988.9], [-46.4873807877, -23.189599961, 987.9], [-46.4874164946, -23.1895499211, 986.5], [-46.4874256309, -23.1894334126, 983.1], [-46.48740937, -23.1893073488, 979.7], [-46.4874107949, -23.1892945245, 979.7], [-46.4874043409, -23.1892728154, 978.8], [-46.4873660356, -23.1891556364, 975.9], [-46.4873579051, -23.1891040877, 974.0], [-46.4873571508, -23.1890933588, 974.0], [-46.4873397164, -23.1889809575, 970.6], [-46.4873080328, -23.18884735, 966.7], [-46.48729546, -23.1887450907, 964.3], [-46.4873333462, -23.1886742637, 961.5], [-46.4873711485, -23.1886338629, 960.5], [-46.4874087833, -23.1885782909, 958.1], [-46.4874720667, -23.188397577, 955.2], [-46.487490423, -23.1882146839, 952.3], [-46.4874939434, -23.1881063059, 949.0], [-46.487422362, -23.187950654, 946.1], [-46.4873291552, -23.1878613029, 943.2], [-46.487318594, -23.1878406834, 942.7], [-46.4872547239, -23.187770946, 941.8], [-46.4872344397, -23.1877820101, 940.8], [-46.4872212801, -23.1877983548, 940.3], [-46.4869923703, -23.1878109276, 938.4], [-46.4867805596, -23.1877896376, 936.5], [-46.4866260812, -23.1877808366, 933.1], [-46.4864922222, -23.1877793279, 929.7], [-46.4863259252, -23.1877774838, 926.9], [-46.4862162899, -23.1878088322, 923.5], [-46.4860381745, -23.1878183037, 922.0], [-46.4859552775, -23.1878073234, 922.0], [-46.4859729633, -23.187736664, 921.1], [-46.4860172197, -23.1875892263, 920.6], [-46.486109253, -23.1874769088, 918.2], [-46.4861807507, -23.1873692852, 916.8], [-46.4862061478, -23.1872400362, 915.3], [-46.4863625541, -23.1871309876, 914.4], [-46.4864444453, -23.18705488, 913.4], [-46.486575203, -23.1869992241, 913.9], [-46.486595571, -23.1869811192, 912.9], [-46.486634966, -23.1869656965, 912.0], [-46.4867632929, -23.1868690532, 911.5], [-46.4867663942, -23.1868595816, 911.5], [-46.4867678192, -23.1867742538, 910.5], [-46.486797994, -23.1867591664, 910.0], [-46.4868197031, -23.1867346074, 909.1], [-46.4869242255, -23.1866647862, 907.1], [-46.4869341161, -23.1866483577, 906.7], [-46.4869968966, -23.1865576655, 904.3], [-46.4870241378, -23.1864589266, 903.3], [-46.4870303404, -23.1865020934, 903.3], [-46.4870237187, -23.1865590904, 904.3], [-46.4870201144, -23.1865549833, 903.3], [-46.4869918674, -23.1865591742, 903.8], [-46.4869219624, -23.1866600085, 906.2], [-46.4868560806, -23.1867157482, 906.7], [-46.4868240617, -23.1867903471, 908.6], [-46.4868001733, -23.1868597493, 909.1], [-46.4867570065, -23.1869330909, 908.6], [-46.4867121633, -23.1870055944, 910.5], [-46.4867036138, -23.1870143116, 911.0], [-46.4867310226, -23.1870197598, 909.5], [-46.4867357165, -23.1870298181, 909.5], [-46.4867332857, -23.1871017348, 911.0], [-46.4867585991, -23.1871394534, 911.0], [-46.4867357165, -23.1871914212, 913.4], [-46.4867682382, -23.1872378569, 914.8], [-46.4867708366, -23.1872567162, 914.4], [-46.4867596049, -23.1872392818, 913.4], [-46.486765556, -23.18718547, 911.5], [-46.486744266, -23.1871099491, 909.5], [-46.4867330343, -23.1870285608, 907.6], [-46.486704452, -23.1869861484, 907.1], [-46.4866735227, -23.1869637687, 906.7], [-46.4865464531, -23.1869683787, 907.6], [-46.4864923898, -23.1869874895, 906.7], [-46.4864695072, -23.1870125514, 906.2], [-46.4864671603, -23.1870333385, 905.2], [-46.4864669088, -23.1870037504, 903.8], [-46.486458946, -23.1870013196, 903.3], [-46.4864553418, -23.1870055106, 903.8], [-46.4864346385, -23.1870324165, 904.7], [-46.4863866102, -23.1871169899, 908.1], [-46.4863162022, -23.1871283054, 908.1], [-46.4862795733, -23.187135933, 908.6], [-46.4862724487, -23.1871318258, 908.1], [-46.4862578642, -23.1871621683, 908.6], [-46.4862567745, -23.1872210093, 910.0], [-46.4862371609, -23.1872754917, 910.0], [-46.4862214867, -23.1873143837, 910.0], [-46.4861749671, -23.1873052474, 911.0], [-46.4860832691, -23.187267445, 910.5], [-46.4860224165, -23.1872259546, 911.0], [-46.4860173035, -23.1871902477, 911.5], [-46.4860877953, -23.1869887467, 911.0], [-46.4861094207, -23.186817253, 910.0], [-46.4861091692, -23.1867610943, 909.5], [-46.48609953, -23.186649112, 908.6], [-46.4860717859, -23.186414754, 907.1], [-46.486033313, -23.1863190327, 906.2], [-46.4859611448, -23.1861458626, 905.2], [-46.4859492425, -23.1860133447, 904.7], [-46.4859377593, -23.1859245803, 904.7], [-46.4859145414, -23.1859115884, 904.3], [-46.4858982805, -23.1859540008, 904.3], [-46.4859338198, -23.1861432642, 905.2], [-46.4859981928, -23.1863557454, 905.7], [-46.4860639907, -23.186630588, 907.1], [-46.4860657509, -23.1866507046, 907.1], [-46.4860741328, -23.1868086196, 908.6], [-46.4860940818, -23.1868693884, 908.1], [-46.4860496577, -23.1870574784, 908.6], [-46.486017555, -23.1871304847, 908.1], [-46.4860075805, -23.1871679518, 909.1], [-46.485917056, -23.1872953568, 909.1], [-46.4858886413, -23.187337853, 909.1], [-46.4858495817, -23.1874506734, 909.5], [-46.4858302195, -23.1875057425, 909.5], [-46.4857363421, -23.1876586284, 909.1], [-46.4856946841, -23.1877058186, 908.6], [-46.4856765792, -23.1877700239, 908.1], [-46.4856369328, -23.1879188865, 908.1], [-46.4856324904, -23.1879894622, 908.6], [-46.4856431354, -23.188111838, 909.5], [-46.4856956899, -23.188132206, 910.0], [-46.4857860468, -23.1880731974, 910.5], [-46.4857944287, -23.188078478, 911.0], [-46.4858110249, -23.1880670786, 911.0], [-46.4858845342, -23.1879510731, 911.5], [-46.485898532, -23.1879337225, 912.0], [-46.4859591331, -23.1878301222, 912.0], [-46.4860324748, -23.1877233367, 911.5], [-46.4861089177, -23.1875646673, 910.5], [-46.4861754701, -23.1874554511, 907.6], [-46.4861998614, -23.1874127872, 908.6], [-46.4862390049, -23.1873966102, 908.6], [-46.4862466324, -23.1874042377, 908.1], [-46.4862541761, -23.1874079257, 908.1], [-46.4862650726, -23.1874057464, 908.1], [-46.486261636, -23.1873952691, 907.6], [-46.4862136915, -23.1873390265, 907.1], [-46.4862253424, -23.1873450615, 907.1], [-46.4862623904, -23.1873716321, 908.1], [-46.4862748794, -23.1873380207, 907.6], [-46.4862799086, -23.1873336621, 907.1], [-46.4863351453, -23.187232241, 904.7], [-46.4864396676, -23.1871541217, 905.2], [-46.4865907934, -23.1871688738, 907.1], [-46.4865914639, -23.1871671136, 907.1], [-46.4866104908, -23.1871730648, 907.6], [-46.4866807312, -23.1872394495, 909.5], [-46.4866647217, -23.1872414611, 909.1], [-46.486656256, -23.18724012, 909.1], [-46.4866353851, -23.1872439757, 909.1], [-46.4866596926, -23.1872272119, 909.1], [-46.4866555855, -23.1872422155, 908.6], [-46.4866696671, -23.1872300617, 908.1], [-46.486672936, -23.1872376055, 908.6], [-46.48669146, -23.1872200035, 907.6], [-46.4866824914, -23.1872032396, 907.1], [-46.4865828305, -23.1871314067, 904.7], [-46.4865158591, -23.1871301495, 903.8], [-46.4863833413, -23.1872154772, 904.3], [-46.4863225725, -23.1873065047, 906.2], [-46.4862872846, -23.1873738952, 907.1], [-46.4863454551, -23.1874208339, 906.7], [-46.4863110054, -23.1874006335, 906.2], [-46.48631352, -23.1873518508, 905.7], [-46.4862929843, -23.1873736437, 905.2], [-46.4863577764, -23.187389737, 904.7], [-46.4864043798, -23.1873541139, 904.7], [-46.4863933157, -23.1873280462, 905.2], [-46.4863464609, -23.1873254478, 904.7], [-46.4863188844, -23.1873432174, 904.7], [-46.4863571059, -23.1873785052, 904.3], [-46.4863175433, -23.1873728056, 904.7], [-46.4863030426, -23.1873878092, 904.3], [-46.4863132685, -23.1873819418, 904.7], [-46.4863369055, -23.1873962749, 904.3], [-46.4862958342, -23.1873720512, 904.3], [-46.4863015339, -23.187380014, 904.7], [-46.4863410126, -23.1873820256, 904.3], [-46.4862933196, -23.1873697881, 904.3], [-46.4862552658, -23.187369369, 903.8], [-46.4862430282, -23.1873593945, 904.3], [-46.486283429, -23.1873998791, 904.3], [-46.4862776455, -23.1874039862, 903.8], [-46.4863133524, -23.1874105241, 904.3], [-46.4862547629, -23.1873531081, 903.8], [-46.4862920623, -23.1873865519, 903.8], [-46.4862861112, -23.1873806007, 903.8], [-46.4862652402, -23.1873801816, 903.8], [-46.486269515, -23.1874137092, 904.7], [-46.4862385858, -23.1873982865, 905.2], [-46.4862189721, -23.1873500906, 904.3], [-46.4862726163, -23.1873593945, 904.3], [-46.4863222372, -23.1873571314, 903.8], [-46.4862832613, -23.1873415411, 903.8], [-46.4862483088, -23.1873196643, 903.8], [-46.4861807507, -23.1872662716, 904.3], [-46.4860894717, -23.1872649305, 904.3], [-46.4860655833, -23.1872520223, 904.3], [-46.486013364, -23.187213717, 905.7], [-46.4860274456, -23.1871439796, 906.2], [-46.4860560279, -23.1870290637, 905.7], [-46.486071283, -23.1869527884, 904.7], [-46.4860753901, -23.1869459152, 904.7], [-46.4860815927, -23.1869233679, 905.2], [-46.4861057326, -23.1868064404, 904.3], [-46.4861136116, -23.1866629422, 903.8], [-46.4860908967, -23.1865535583, 902.3], [-46.4860531781, -23.1864484493, 902.3], [-46.4859973546, -23.1862842478, 901.4], [-46.4859375078, -23.186129434, 899.9], [-46.4859329816, -23.1861207169, 900.4], [-46.4859039802, -23.1860489678, 900.4], [-46.4858976938, -23.1858841795, 899.0], [-46.485891575, -23.1857370771, 898.0], [-46.4858888928, -23.1856824271, 897.5], [-46.4859143738, -23.1855214108, 896.1], [-46.4859742206, -23.1853619032, 894.6], [-46.4861072414, -23.1851950195, 893.2], [-46.4861923177, -23.1851315685, 892.2], [-46.4863531664, -23.1850293092, 890.3], [-46.4864669088, -23.1849221047, 887.9], [-46.4865857642, -23.1848133076, 885.5], [-46.4866818208, -23.1847281475, 883.6], [-46.4868287556, -23.1846062746, 881.7], [-46.4869577531, -23.1845006626, 879.3], [-46.4871108066, -23.1843671389, 876.9], [-46.487263022, -23.1842587609, 874.0], [-46.48740476, -23.1841301825, 871.1], [-46.4875455759, -23.1839947309, 868.2], [-46.4876617491, -23.1838771328, 865.3], [-46.4877557941, -23.1837530807, 862.4], [-46.4878576342, -23.1836038828, 858.6], [-46.4879392739, -23.183469018, 856.2], [-46.4880201593, -23.1833478156, 852.8], [-46.4880518429, -23.1832160521, 849.5], [-46.4880660921, -23.1829946861, 846.6], [-46.488048071, -23.1828552112, 843.7], [-46.4880466461, -23.1826990563, 840.8], [-46.488037426, -23.1826586556, 840.3], [-46.4880420361, -23.1825394649, 839.9], [-46.4880654216, -23.1823048554, 840.3], [-46.4880446345, -23.1821648777, 840.3], [-46.4880484901, -23.1820817292, 839.9], [-46.488024937, -23.1820250675, 839.4], [-46.4879839495, -23.1818137597, 838.4], [-46.4879309759, -23.1816344708, 837.9], [-46.4878477436, -23.1815254223, 837.5], [-46.4878458995, -23.181517208, 837.0], [-46.4878501743, -23.1814678386, 837.0], [-46.4878088515, -23.1813746318, 835.5], [-46.4877266251, -23.1813094206, 835.0], [-46.487647919, -23.181169359, 832.2], [-46.4875343442, -23.1809919141, 829.3], [-46.4874423109, -23.1808650959, 826.4], [-46.4873661194, -23.180746492, 824.0], [-46.4872379601, -23.1805969588, 821.1], [-46.4871884231, -23.1805553846, 820.1], [-46.4870061167, -23.1804518681, 816.8], [-46.4868062921, -23.180360673, 813.4], [-46.4867836609, -23.1803383771, 813.4], [-46.486641923, -23.1801471021, 811.0], [-46.4864934795, -23.1799452659, 808.6], [-46.4864105824, -23.1797963195, 806.2], [-46.4862747956, -23.1795964949, 803.3], [-46.4861442056, -23.1794664077, 802.4], [-46.4860804193, -23.1793721952, 801.4], [-46.4859301317, -23.179124929, 801.4], [-46.4857793413, -23.1789146271, 800.4], [-46.4856344182, -23.178714551, 799.5], [-46.4855060074, -23.1785199232, 799.5], [-46.4854982123, -23.1785102002, 799.5], [-46.4853838831, -23.1783172488, 799.0], [-46.4853215218, -23.1782330945, 799.0], [-46.4851452503, -23.1780533865, 798.5], [-46.4849311765, -23.1778264046, 796.6], [-46.4847512171, -23.1776555814, 797.1], [-46.4845666476, -23.1774949841, 796.1], [-46.4843597822, -23.1772811618, 795.6], [-46.4841952454, -23.1771048903, 795.6], [-46.4841293637, -23.1770311296, 795.6], [-46.4839629829, -23.1768695265, 796.1], [-46.4837958477, -23.1766925845, 796.1], [-46.4836809319, -23.1764492579, 796.6], [-46.4836361725, -23.1762365252, 796.1], [-46.4835930057, -23.1759833079, 797.5], [-46.4834823646, -23.1757255644, 799.0], [-46.4833097812, -23.1755068805, 798.5], [-46.4831302408, -23.1752660684, 798.0], [-46.4829297457, -23.1750513241, 797.5], [-46.4828013349, -23.1749345642, 797.1], [-46.4827427454, -23.1748439558, 797.1], [-46.4826982375, -23.1748050638, 797.1], [-46.4826092217, -23.1746704504, 796.1], [-46.4825392328, -23.174541872, 795.6], [-46.482479386, -23.1744548678, 795.1], [-46.4824269153, -23.1743889023, 794.2], [-46.4822879434, -23.1741743255, 793.7], [-46.4821881987, -23.1740553863, 794.2], [-46.4819923975, -23.1738696434, 794.7], [-46.481760554, -23.1737348624, 795.6], [-46.4815612324, -23.1736380514, 795.6], [-46.4813354239, -23.173567811, 793.7], [-46.4811004791, -23.1734499615, 792.3], [-46.480905097, -23.1733194552, 792.7], [-46.4807158336, -23.1731518172, 792.3], [-46.4806251414, -23.1730607897, 792.3], [-46.4804987423, -23.1729387492, 792.3], [-46.4803129993, -23.1727689318, 792.7], [-46.4801455289, -23.1726302952, 792.7], [-46.4800155256, -23.1724926643, 793.2], [-46.4800006896, -23.1724451389, 793.7], [-46.479986608, -23.1723954342, 793.7], [-46.4800320379, -23.17223249, 793.2], [-46.4800374862, -23.1720848009, 793.7], [-46.4800429344, -23.1718760077, 793.7], [-46.4800413419, -23.1718337629, 793.7], [-46.4800081495, -23.1717310846, 793.7], [-46.4798969217, -23.1714907754, 792.7], [-46.4798426908, -23.1713311002, 792.7], [-46.4798262622, -23.1712451018, 791.8], [-46.4797917288, -23.1710670702, 790.8], [-46.4797669183, -23.1709426828, 789.9], [-46.4797412697, -23.1708768848, 789.4], [-46.4796961751, -23.1707451213, 789.4], [-46.4796612225, -23.1705626473, 789.9], [-46.4796100091, -23.1703608949, 788.9], [-46.4795535151, -23.1701524369, 788.9], [-46.4795556106, -23.1700506806, 788.4], [-46.4795677643, -23.1700205896, 788.4], [-46.4795277826, -23.1700402033, 787.9], [-46.4795260224, -23.1700376887, 787.9], [-46.479555862, -23.1700273789, 787.9], [-46.4795520063, -23.1700275466, 787.5], [-46.4795341529, -23.1700157281, 787.9]]}}]}